IRIDIUM 150             
1 43257U 18030J   24187.85809552  .00000009  00000+0 -37081-5 0  9990
2 43257  86.3969 227.7166 0002502  90.2807 269.8675 14.34218155328202
IRIDIUM 143             
1 43258U 18030K   24187.83906792  .00000052  00000+0  11383-4 0  9996
2 43258  86.3971 227.7888 0002488  87.4770 272.6710 14.34217967328131
IRIDIUM 161             
1 43478U 18047C   24187.83457937  .00000557  00000+0  15967-3 0  9991
2 43478  86.4486  25.7470 0002277  84.2182 275.9278 14.43284622322533
IRIDIUM 152             
1 43479U 18047D   24187.81178511  .00000111  00000+0  32453-4 0  9994
2 43479  86.3960  25.6161 0002164  89.1925 270.9519 14.34218150320523
IRIDIUM 147             
1 43480U 18047E   24187.81812760  .00000255  00000+0  83843-4 0  9995
2 43480  86.3962  25.6060 0002083  90.0549 270.0886 14.34218516320522
IRIDIUM 110             
1 43481U 18047F   24187.82447034  .00000395  00000+0  13413-3 0  9995
2 43481  86.3965  25.6767 0001875  97.2279 262.9130 14.34219124320514
IRIDIUM 162             
1 43482U 18047G   24187.82827569  .00000185  00000+0  49062-4 0  9998
2 43482  86.4483  25.6494 0002266  90.1370 270.0091 14.43266245322522
